QIANFAN-193             
1 69411U 26125L   26195.72889300 -.02002740  00000+0 -15710+1 0  9997
2 69411  88.9951 277.3254 0024471  85.9124 274.4849 13.95886821  5600
QIANFAN-194             
1 69412U 26125M   26195.72469983 -.02071717  00000+0 -16350+1 0  9990
2 69412  88.9945 277.3251 0024399  80.2774 280.1156 13.95684976  5599
QIANFAN-195             
1 69413U 26125N   26195.69737725 -.01947223  00000+0 -14283+1 0  9995
2 69413  88.9941 277.3210 0019529  85.2503 275.0905 13.99641261  5606
QIANFAN-196             
1 69414U 26125P   26195.91299185  .00000003  00000+0 -71078-5 0  9998
2 69414  88.9949 277.2971 0020094  84.4938 275.8533 14.01634693  5633
QIANFAN-197             
1 69415U 26125Q   26195.62080674 -.02151428  00000+0 -16174+1 0  9990
2 69415  88.9942 277.3284 0019058  76.1849 284.1448 13.98669934  5585
QIANFAN-198             
1 69416U 26125R   26195.91741333  .00000021  00000+0  44668-5 0  9991
2 69416  88.9951 277.2981 0018398  80.6827 279.6432 14.01021932  5634
QIANFAN-199             
1 69417U 26125S   26195.65575913 -.02046995  00000+0 -14209+1 0  9999
2 69417  88.9946 277.3150 0013734  89.2966 270.9788 14.02999462  5604
QIANFAN-200             
1 69418U 26125T   26195.68101521 -.01958478  00000+0 -15350+1 0  9998
2 69418  88.9940 277.3373 0024691  84.1616 276.2374 13.95845158  5597
QIANFAN-201             
1 69800U 26153A   26195.90743870  .00000067  00000+0  11044-4 0  9997
2 69800  89.0162 359.0111 0087059  87.9227 273.1948 14.53448407  1538
QIANFAN-202             
1 69801U 26153B   26195.90194357  .00000052  00000+0  17118-4 0  9990
2 69801  88.9965 359.0753 0006377 171.8728 188.2568 14.22084805  1508
QIANFAN-203             
1 69802U 26153C   26195.90075845  .00000053  00000+0  17161-4 0  9990
2 69802  88.9967 359.0751 0007473 177.6524 182.4704 14.22926605  1506
QIANFAN-204             
1 69803U 26153D   26195.90064232  .00000164  00000+0  67353-4 0  9990
2 69803  88.9922 359.0842 0007180 184.5573 175.5555 14.22390513  1505
QIANFAN-205             
1 69804U 26153E   26195.90179122  .00000143  00000+0  57715-4 0  9994
2 69804  88.9921 359.0841 0007387 182.9228 177.1922 14.22264160  1506
QIANFAN-206             
1 69805U 26153F   26195.89600861  .00000054  00000+0  17035-4 0  9994
2 69805  88.9922 359.0834 0007879 183.9444 176.1687 14.24034429  1509
QIANFAN-207             
1 69806U 26153G   26195.96507424  .00000052  00000+0  16411-4 0  9999
2 69806  88.9922 359.0748 0007281 183.5908 176.5233 14.24249701  1515
QIANFAN-208             
1 69807U 26153H   26195.89463589 -.00000165  00000+0 -76135-4 0  9991
2 69807  88.9918 359.0833 0008060 185.7481 174.3621 14.25461574  1503
