{"fetched_at":"2026-07-15T06:35:39.467Z","source":"https://celestrak.org/NORAD/elements/gp.php?GROUP=qianfan&FORMAT=JSON","constellation":"qianfan","records":[{"OBJECT_NAME":"QIANFAN-193","OBJECT_ID":"2026-125L","EPOCH":"2026-07-14T17:29:36.355200","CLASSIFICATION_TYPE":"U","MEAN_MOTION":13.95886821,"ECCENTRICITY":0.00244718,"INCLINATION":88.9951,"RA_OF_ASC_NODE":277.3254,"ARG_OF_PERICENTER":85.9124,"MEAN_ANOMALY":274.4849,"EPHEMERIS_TYPE":0,"NORAD_CAT_ID":69411,"ELEMENT_SET_NO":999,"REV_AT_EPOCH":560,"BSTAR":-1.5710481,"MEAN_MOTION_DOT":-0.0200274,"MEAN_MOTION_DDOT":0},{"OBJECT_NAME":"QIANFAN-194","OBJECT_ID":"2026-125M","EPOCH":"2026-07-14T17:23:34.065312","CLASSIFICATION_TYPE":"U","MEAN_MOTION":13.95684976,"ECCENTRICITY":0.0024399,"INCLINATION":88.9945,"RA_OF_ASC_NODE":277.3251,"ARG_OF_PERICENTER":80.2774,"MEAN_ANOMALY":280.1156,"EPHEMERIS_TYPE":0,"NORAD_CAT_ID":69412,"ELEMENT_SET_NO":999,"REV_AT_EPOCH":559,"BSTAR":-1.6349545,"MEAN_MOTION_DOT":-0.02071717,"MEAN_MOTION_DDOT":0},{"OBJECT_NAME":"QIANFAN-195","OBJECT_ID":"2026-125N","EPOCH":"2026-07-14T16:44:13.394400","CLASSIFICATION_TYPE":"U","MEAN_MOTION":13.99641261,"ECCENTRICITY":0.00195298,"INCLINATION":88.9941,"RA_OF_ASC_NODE":277.321,"ARG_OF_PERICENTER":85.2503,"MEAN_ANOMALY":275.0905,"EPHEMERIS_TYPE":0,"NORAD_CAT_ID":69413,"ELEMENT_SET_NO":999,"REV_AT_EPOCH":560,"BSTAR":-1.428322,"MEAN_MOTION_DOT":-0.01947223,"MEAN_MOTION_DDOT":0},{"OBJECT_NAME":"QIANFAN-196","OBJECT_ID":"2026-125P","EPOCH":"2026-07-14T21:54:42.495840","CLASSIFICATION_TYPE":"U","MEAN_MOTION":14.01634693,"ECCENTRICITY":0.00200942,"INCLINATION":88.9949,"RA_OF_ASC_NODE":277.2971,"ARG_OF_PERICENTER":84.4938,"MEAN_ANOMALY":275.8533,"EPHEMERIS_TYPE":0,"NORAD_CAT_ID":69414,"ELEMENT_SET_NO":999,"REV_AT_EPOCH":563,"BSTAR":-0.00000710784,"MEAN_MOTION_DOT":3e-8,"MEAN_MOTION_DDOT":0},{"OBJECT_NAME":"QIANFAN-197","OBJECT_ID":"2026-125Q","EPOCH":"2026-07-14T14:53:57.702336","CLASSIFICATION_TYPE":"U","MEAN_MOTION":13.98669934,"ECCENTRICITY":0.00190582,"INCLINATION":88.9942,"RA_OF_ASC_NODE":277.3284,"ARG_OF_PERICENTER":76.1849,"MEAN_ANOMALY":284.1448,"EPHEMERIS_TYPE":0,"NORAD_CAT_ID":69415,"ELEMENT_SET_NO":999,"REV_AT_EPOCH":558,"BSTAR":-1.6174015,"MEAN_MOTION_DOT":-0.02151428,"MEAN_MOTION_DDOT":0},{"OBJECT_NAME":"QIANFAN-198","OBJECT_ID":"2026-125R","EPOCH":"2026-07-14T22:01:04.511712","CLASSIFICATION_TYPE":"U","MEAN_MOTION":14.01021932,"ECCENTRICITY":0.0018398,"INCLINATION":88.9951,"RA_OF_ASC_NODE":277.2981,"ARG_OF_PERICENTER":80.6827,"MEAN_ANOMALY":279.6432,"EPHEMERIS_TYPE":0,"NORAD_CAT_ID":69416,"ELEMENT_SET_NO":999,"REV_AT_EPOCH":563,"BSTAR":0.000004466801,"MEAN_MOTION_DOT":2.1e-7,"MEAN_MOTION_DDOT":0},{"OBJECT_NAME":"QIANFAN-199","OBJECT_ID":"2026-125S","EPOCH":"2026-07-14T15:44:17.588832","CLASSIFICATION_TYPE":"U","MEAN_MOTION":14.02999462,"ECCENTRICITY":0.00137344,"INCLINATION":88.9946,"RA_OF_ASC_NODE":277.315,"ARG_OF_PERICENTER":89.2966,"MEAN_ANOMALY":270.9788,"EPHEMERIS_TYPE":0,"NORAD_CAT_ID":69417,"ELEMENT_SET_NO":999,"REV_AT_EPOCH":560,"BSTAR":-1.4208856,"MEAN_MOTION_DOT":-0.02046995,"MEAN_MOTION_DDOT":0},{"OBJECT_NAME":"QIANFAN-200","OBJECT_ID":"2026-125T","EPOCH":"2026-07-14T16:20:39.714144","CLASSIFICATION_TYPE":"U","MEAN_MOTION":13.95845158,"ECCENTRICITY":0.00246914,"INCLINATION":88.994,"RA_OF_ASC_NODE":277.3373,"ARG_OF_PERICENTER":84.1616,"MEAN_ANOMALY":276.2374,"EPHEMERIS_TYPE":0,"NORAD_CAT_ID":69418,"ELEMENT_SET_NO":999,"REV_AT_EPOCH":559,"BSTAR":-1.5349519,"MEAN_MOTION_DOT":-0.01958478,"MEAN_MOTION_DDOT":0},{"OBJECT_NAME":"QIANFAN-201","OBJECT_ID":"2026-153A","EPOCH":"2026-07-14T21:46:42.703680","CLASSIFICATION_TYPE":"U","MEAN_MOTION":14.53448407,"ECCENTRICITY":0.00870592,"INCLINATION":89.0162,"RA_OF_ASC_NODE":359.0111,"ARG_OF_PERICENTER":87.9227,"MEAN_ANOMALY":273.1948,"EPHEMERIS_TYPE":0,"NORAD_CAT_ID":69800,"ELEMENT_SET_NO":999,"REV_AT_EPOCH":153,"BSTAR":0.000011043672,"MEAN_MOTION_DOT":6.7e-7,"MEAN_MOTION_DDOT":0},{"OBJECT_NAME":"QIANFAN-202","OBJECT_ID":"2026-153B","EPOCH":"2026-07-14T21:38:47.924448","CLASSIFICATION_TYPE":"U","MEAN_MOTION":14.22084805,"ECCENTRICITY":0.00063775,"INCLINATION":88.9965,"RA_OF_ASC_NODE":359.0753,"ARG_OF_PERICENTER":171.8728,"MEAN_ANOMALY":188.2568,"EPHEMERIS_TYPE":0,"NORAD_CAT_ID":69801,"ELEMENT_SET_NO":999,"REV_AT_EPOCH":150,"BSTAR":0.000017117652,"MEAN_MOTION_DOT":5.2e-7,"MEAN_MOTION_DDOT":0},{"OBJECT_NAME":"QIANFAN-203","OBJECT_ID":"2026-153C","EPOCH":"2026-07-14T21:37:05.530080","CLASSIFICATION_TYPE":"U","MEAN_MOTION":14.22926605,"ECCENTRICITY":0.00074739,"INCLINATION":88.9967,"RA_OF_ASC_NODE":359.0751,"ARG_OF_PERICENTER":177.6524,"MEAN_ANOMALY":182.4704,"EPHEMERIS_TYPE":0,"NORAD_CAT_ID":69802,"ELEMENT_SET_NO":999,"REV_AT_EPOCH":150,"BSTAR":0.000017160809,"MEAN_MOTION_DOT":5.3e-7,"MEAN_MOTION_DDOT":0},{"OBJECT_NAME":"QIANFAN-204","OBJECT_ID":"2026-153D","EPOCH":"2026-07-14T21:36:55.496448","CLASSIFICATION_TYPE":"U","MEAN_MOTION":14.22390513,"ECCENTRICITY":0.00071803,"INCLINATION":88.9922,"RA_OF_ASC_NODE":359.0842,"ARG_OF_PERICENTER":184.5573,"MEAN_ANOMALY":175.5555,"EPHEMERIS_TYPE":0,"NORAD_CAT_ID":69803,"ELEMENT_SET_NO":999,"REV_AT_EPOCH":150,"BSTAR":0.000067352783,"MEAN_MOTION_DOT":0.00000164,"MEAN_MOTION_DDOT":0},{"OBJECT_NAME":"QIANFAN-205","OBJECT_ID":"2026-153E","EPOCH":"2026-07-14T21:38:34.761408","CLASSIFICATION_TYPE":"U","MEAN_MOTION":14.2226416,"ECCENTRICITY":0.00073876,"INCLINATION":88.9921,"RA_OF_ASC_NODE":359.0841,"ARG_OF_PERICENTER":182.9228,"MEAN_ANOMALY":177.1922,"EPHEMERIS_TYPE":0,"NORAD_CAT_ID":69804,"ELEMENT_SET_NO":999,"REV_AT_EPOCH":150,"BSTAR":0.000057714979,"MEAN_MOTION_DOT":0.00000143,"MEAN_MOTION_DDOT":0},{"OBJECT_NAME":"QIANFAN-206","OBJECT_ID":"2026-153F","EPOCH":"2026-07-14T21:30:15.143904","CLASSIFICATION_TYPE":"U","MEAN_MOTION":14.24034429,"ECCENTRICITY":0.00078799,"INCLINATION":88.9922,"RA_OF_ASC_NODE":359.0834,"ARG_OF_PERICENTER":183.9444,"MEAN_ANOMALY":176.1687,"EPHEMERIS_TYPE":0,"NORAD_CAT_ID":69805,"ELEMENT_SET_NO":999,"REV_AT_EPOCH":150,"BSTAR":0.00001703508,"MEAN_MOTION_DOT":5.4e-7,"MEAN_MOTION_DDOT":0},{"OBJECT_NAME":"QIANFAN-207","OBJECT_ID":"2026-153G","EPOCH":"2026-07-14T23:09:42.414336","CLASSIFICATION_TYPE":"U","MEAN_MOTION":14.24249701,"ECCENTRICITY":0.00072812,"INCLINATION":88.9922,"RA_OF_ASC_NODE":359.0748,"ARG_OF_PERICENTER":183.5908,"MEAN_ANOMALY":176.5233,"EPHEMERIS_TYPE":0,"NORAD_CAT_ID":69806,"ELEMENT_SET_NO":999,"REV_AT_EPOCH":151,"BSTAR":0.000016410849,"MEAN_MOTION_DOT":5.2e-7,"MEAN_MOTION_DDOT":0},{"OBJECT_NAME":"QIANFAN-208","OBJECT_ID":"2026-153H","EPOCH":"2026-07-14T21:28:16.540896","CLASSIFICATION_TYPE":"U","MEAN_MOTION":14.25461574,"ECCENTRICITY":0.00080605,"INCLINATION":88.9918,"RA_OF_ASC_NODE":359.0833,"ARG_OF_PERICENTER":185.7481,"MEAN_ANOMALY":174.3621,"EPHEMERIS_TYPE":0,"NORAD_CAT_ID":69807,"ELEMENT_SET_NO":999,"REV_AT_EPOCH":150,"BSTAR":-0.000076134846,"MEAN_MOTION_DOT":-0.00000165,"MEAN_MOTION_DDOT":0}]}
